ACS3                    
1 59588U 24077B   24151.17759779  .00000048  00000+0  90609-4 0  9999
2 59588  97.4064 223.5403 0021194 141.2030 219.0647 13.67682049  4946
